[{"OBJECT_NAME":"SITRO-AIS 16","OBJECT_ID":"2024-199C","EPOCH":"2026-03-09T22:02:52.039104","MEAN_MOTION":14.97049887,"ECCENTRICITY":0.00080733,"INCLINATION":97.3322,"RA_OF_ASC_NODE":274.4213,"ARG_OF_PERICENTER":52.0818,"MEAN_ANOMALY":308.1134,"EPHEMERIS_TYPE":0,"CLASSIFICATION_TYPE":"U","NORAD_CAT_ID":61737,"ELEMENT_SET_NO":999,"REV_AT_EPOCH":11696,"BSTAR":0.00041232113,"MEAN_MOTION_DOT":4.701e-5,"MEAN_MOTION_DDOT":0},{"OBJECT_NAME":"STARLINK-34051","OBJECT_ID":"2025-102A","EPOCH":"2026-03-09T11:58:54.552864","MEAN_MOTION":14.98336627,"ECCENTRICITY":0.00035108,"INCLINATION":70.0013,"RA_OF_ASC_NODE":114.9428,"ARG_OF_PERICENTER":262.1194,"MEAN_ANOMALY":97.9567,"EPHEMERIS_TYPE":0,"CLASSIFICATION_TYPE":"U","NORAD_CAT_ID":64022,"ELEMENT_SET_NO":999,"REV_AT_EPOCH":4592,"BSTAR":-9.226319e-6,"MEAN_MOTION_DOT":-2.03e-6,"MEAN_MOTION_DDOT":0}]
